[{"OBJECT_NAME":"STARLINK-4588","OBJECT_ID":"2022-104BF","EPOCH":"2026-03-09T17:34:57.743328","MEAN_MOTION":15.08843863,"ECCENTRICITY":0.00012264,"INCLINATION":53.2166,"RA_OF_ASC_NODE":223.7924,"ARG_OF_PERICENTER":87.5023,"MEAN_ANOMALY":272.611,"EPHEMERIS_TYPE":0,"CLASSIFICATION_TYPE":"U","NORAD_CAT_ID":53641,"ELEMENT_SET_NO":999,"REV_AT_EPOCH":19623,"BSTAR":-6.2874278e-5,"MEAN_MOTION_DOT":-1.288e-5,"MEAN_MOTION_DDOT":0},{"OBJECT_NAME":"STARLINK-5895","OBJECT_ID":"2023-037BC","EPOCH":"2026-03-09T22:23:45.381696","MEAN_MOTION":15.07243555,"ECCENTRICITY":0.00049855,"INCLINATION":69.9972,"RA_OF_ASC_NODE":260.028,"ARG_OF_PERICENTER":264.4993,"MEAN_ANOMALY":95.5602,"EPHEMERIS_TYPE":0,"CLASSIFICATION_TYPE":"U","NORAD_CAT_ID":55964,"ELEMENT_SET_NO":999,"REV_AT_EPOCH":16460,"BSTAR":0.00072849946,"MEAN_MOTION_DOT":0.00010921,"MEAN_MOTION_DDOT":0}]
