STARLINK-4588           
1 53641U 22104BF  26068.73261277 -.00001288  00000+0 -62874-4 0  9996
2 53641  53.2166 223.7924 0001226  87.5023 272.6110 15.08843863196235
STARLINK-5895           
1 55964U 23037BC  26068.93316413  .00010921  00000+0  72850-3 0  9993
2 55964  69.9972 260.0280 0004986 264.4993  95.5602 15.07243555164606
